CCSDS_OMM_VERS = 2.0
CREATION_DATE  = 
ORIGINATOR     = 

OBJECT_NAME    = SL-16 R/B
OBJECT_ID      = 1998-045B
CENTER_NAME    = EARTH
REF_FRAME      = TEME
TIME_SYSTEM    = UTC
MEAN_ELEMENT_THEORY = SGP/SGP4

EPOCH          = 2026-03-30T13:13:39.175104
MEAN_MOTION    = 14.16193510
ECCENTRICITY   = .0008056
INCLINATION    = 71.0097
RA_OF_ASC_NODE = 137.7055
ARG_OF_PERICENTER = 336.4069
MEAN_ANOMALY   = 23.6684

EPHEMERIS_TYPE = 0
CLASSIFICATION_TYPE = U
NORAD_CAT_ID   = 25407
ELEMENT_SET_NO = 999
REV_AT_EPOCH   = 43005
BSTAR          = -.71749957E-4
MEAN_MOTION_DOT = -.19E-5
MEAN_MOTION_DDOT = 0

CCSDS_OMM_VERS = 2.0
CREATION_DATE  = 
ORIGINATOR     = 

OBJECT_NAME    = ISS (ZARYA)
OBJECT_ID      = 1998-067A
CENTER_NAME    = EARTH
REF_FRAME      = TEME
TIME_SYSTEM    = UTC
MEAN_ELEMENT_THEORY = SGP/SGP4

EPOCH          = 2026-03-30T22:32:53.905920
MEAN_MOTION    = 15.48666868
ECCENTRICITY   = .00062127
INCLINATION    = 51.6341
RA_OF_ASC_NODE = 327.3071
ARG_OF_PERICENTER = 253.0090
MEAN_ANOMALY   = 107.0218

EPHEMERIS_TYPE = 0
CLASSIFICATION_TYPE = U
NORAD_CAT_ID   = 25544
ELEMENT_SET_NO = 999
REV_AT_EPOCH   = 55962
BSTAR          = .22734022E-3
MEAN_MOTION_DOT = .11955E-3
MEAN_MOTION_DDOT = 0

CCSDS_OMM_VERS = 2.0
CREATION_DATE  = 
ORIGINATOR     = 

OBJECT_NAME    = CZ-4B R/B
OBJECT_ID      = 1999-025C
CENTER_NAME    = EARTH
REF_FRAME      = TEME
TIME_SYSTEM    = UTC
MEAN_ELEMENT_THEORY = SGP/SGP4

EPOCH          = 2026-03-30T22:08:06.798624
MEAN_MOTION    = 14.18269516
ECCENTRICITY   = .00359858
INCLINATION    = 98.6583
RA_OF_ASC_NODE = 133.6968
ARG_OF_PERICENTER = 284.1911
MEAN_ANOMALY   = 248.2579

EPHEMERIS_TYPE = 0
CLASSIFICATION_TYPE = U
NORAD_CAT_ID   = 25732
ELEMENT_SET_NO = 999
REV_AT_EPOCH   = 39117
BSTAR          = .55365587E-4
MEAN_MOTION_DOT = .71E-6
MEAN_MOTION_DDOT = 0

CCSDS_OMM_VERS = 2.0
CREATION_DATE  = 
ORIGINATOR     = 

OBJECT_NAME    = OKEAN-O
OBJECT_ID      = 1999-039A
CENTER_NAME    = EARTH
REF_FRAME      = TEME
TIME_SYSTEM    = UTC
MEAN_ELEMENT_THEORY = SGP/SGP4

EPOCH          = 2026-03-30T21:01:31.076832
MEAN_MOTION    = 14.80369827
ECCENTRICITY   = .00008546
INCLINATION    = 97.9398
RA_OF_ASC_NODE = 149.5476
ARG_OF_PERICENTER = 96.5365
MEAN_ANOMALY   = 263.5944

EPHEMERIS_TYPE = 0
CLASSIFICATION_TYPE = U
NORAD_CAT_ID   = 25860
ELEMENT_SET_NO = 999
REV_AT_EPOCH   = 43752
BSTAR          = .12394265E-3
MEAN_MOTION_DOT = .894E-5
MEAN_MOTION_DDOT = 0

CCSDS_OMM_VERS = 2.0
CREATION_DATE  = 
ORIGINATOR     = 

OBJECT_NAME    = SL-16 R/B
OBJECT_ID      = 1999-039B
CENTER_NAME    = EARTH
REF_FRAME      = TEME
TIME_SYSTEM    = UTC
MEAN_ELEMENT_THEORY = SGP/SGP4

EPOCH          = 2026-03-30T21:41:06.370080
MEAN_MOTION    = 14.81760783
ECCENTRICITY   = .00147203
INCLINATION    = 97.9920
RA_OF_ASC_NODE = 148.9638
ARG_OF_PERICENTER = 183.3491
MEAN_ANOMALY   = 176.7626

EPHEMERIS_TYPE = 0
CLASSIFICATION_TYPE = U
NORAD_CAT_ID   = 25861
ELEMENT_SET_NO = 999
REV_AT_EPOCH   = 44000
BSTAR          = .1004406E-3
MEAN_MOTION_DOT = .739E-5
MEAN_MOTION_DDOT = 0

CCSDS_OMM_VERS = 2.0
CREATION_DATE  = 
ORIGINATOR     = 

OBJECT_NAME    = DELTA 2 R/B
OBJECT_ID      = 1999-041E
CENTER_NAME    = EARTH
REF_FRAME      = TEME
TIME_SYSTEM    = UTC
MEAN_ELEMENT_THEORY = SGP/SGP4

EPOCH          = 2026-03-30T17:59:46.263264
MEAN_MOTION    = 14.11886030
ECCENTRICITY   = .05026308
INCLINATION    = 51.7608
RA_OF_ASC_NODE = 217.1505
ARG_OF_PERICENTER = 50.5354
MEAN_ANOMALY   = 313.8941

EPHEMERIS_TYPE = 0
CLASSIFICATION_TYPE = U
NORAD_CAT_ID   = 25876
ELEMENT_SET_NO = 999
REV_AT_EPOCH   = 36600
BSTAR          = .21373534E-3
MEAN_MOTION_DOT = .1085E-4
MEAN_MOTION_DDOT = 0

CCSDS_OMM_VERS = 2.0
CREATION_DATE  = 
ORIGINATOR     = 

OBJECT_NAME    = HELIOS 1B
OBJECT_ID      = 1999-064A
CENTER_NAME    = EARTH
REF_FRAME      = TEME
TIME_SYSTEM    = UTC
MEAN_ELEMENT_THEORY = SGP/SGP4

EPOCH          = 2026-03-30T23:12:34.268256
MEAN_MOTION    = 14.87780698
ECCENTRICITY   = .00017086
INCLINATION    = 98.1672
RA_OF_ASC_NODE = 352.8336
ARG_OF_PERICENTER = 46.7437
MEAN_ANOMALY   = 313.3920

EPHEMERIS_TYPE = 0
CLASSIFICATION_TYPE = U
NORAD_CAT_ID   = 25977
ELEMENT_SET_NO = 999
REV_AT_EPOCH   = 68842
BSTAR          = .23748867E-3
MEAN_MOTION_DOT = .2109E-4
MEAN_MOTION_DDOT = 0

CCSDS_OMM_VERS = 2.0
CREATION_DATE  = 
ORIGINATOR     = 

OBJECT_NAME    = TERRA
OBJECT_ID      = 1999-068A
CENTER_NAME    = EARTH
REF_FRAME      = TEME
TIME_SYSTEM    = UTC
MEAN_ELEMENT_THEORY = SGP/SGP4

EPOCH          = 2026-03-30T21:34:01.334784
MEAN_MOTION    = 14.61037432
ECCENTRICITY   = .00036081
INCLINATION    = 97.9548
RA_OF_ASC_NODE = 142.5185
ARG_OF_PERICENTER = 107.5780
MEAN_ANOMALY   = 65.0721

EPHEMERIS_TYPE = 0
CLASSIFICATION_TYPE = U
NORAD_CAT_ID   = 25994
ELEMENT_SET_NO = 999
REV_AT_EPOCH   = 39817
BSTAR          = .12538225E-3
MEAN_MOTION_DOT = .571E-5
MEAN_MOTION_DDOT = 0

CCSDS_OMM_VERS = 2.0
CREATION_DATE  = 
ORIGINATOR     = 

OBJECT_NAME    = SL-16 R/B
OBJECT_ID      = 2000-006B
CENTER_NAME    = EARTH
REF_FRAME      = TEME
TIME_SYSTEM    = UTC
MEAN_ELEMENT_THEORY = SGP/SGP4

EPOCH          = 2026-03-30T15:25:26.828832
MEAN_MOTION    = 14.15828586
ECCENTRICITY   = .00155882
INCLINATION    = 71.0027
RA_OF_ASC_NODE = 53.7763
ARG_OF_PERICENTER = 157.0260
MEAN_ANOMALY   = 203.1563

EPHEMERIS_TYPE = 0
CLASSIFICATION_TYPE = U
NORAD_CAT_ID   = 26070
ELEMENT_SET_NO = 999
REV_AT_EPOCH   = 35152
BSTAR          = .18109784E-3
MEAN_MOTION_DOT = .309E-5
MEAN_MOTION_DDOT = 0

CCSDS_OMM_VERS = 2.0
CREATION_DATE  = 
ORIGINATOR     = 

OBJECT_NAME    = TITAN 4B R/B
OBJECT_ID      = 2000-047B
CENTER_NAME    = EARTH
REF_FRAME      = TEME
TIME_SYSTEM    = UTC
MEAN_ELEMENT_THEORY = SGP/SGP4

EPOCH          = 2026-03-30T23:08:03.860448
MEAN_MOTION    = 15.09760287
ECCENTRICITY   = .00399148
INCLINATION    = 67.9916
RA_OF_ASC_NODE = 340.6813
ARG_OF_PERICENTER = 10.4415
MEAN_ANOMALY   = 349.7553

EPHEMERIS_TYPE = 0
CLASSIFICATION_TYPE = U
NORAD_CAT_ID   = 26474
ELEMENT_SET_NO = 999
REV_AT_EPOCH   = 39612
BSTAR          = .31445793E-3
MEAN_MOTION_DOT = .5049E-4
MEAN_MOTION_DDOT = 0

CCSDS_OMM_VERS = 2.0
CREATION_DATE  = 
ORIGINATOR     = 

OBJECT_NAME    = ENVISAT
OBJECT_ID      = 2002-009A
CENTER_NAME    = EARTH
REF_FRAME      = TEME
TIME_SYSTEM    = UTC
MEAN_ELEMENT_THEORY = SGP/SGP4

EPOCH          = 2026-03-30T21:07:40.084320
MEAN_MOTION    = 14.39044384
ECCENTRICITY   = .00012157
INCLINATION    = 98.3762
RA_OF_ASC_NODE = 42.9777
ARG_OF_PERICENTER = 81.9458
MEAN_ANOMALY   = 296.8331

EPHEMERIS_TYPE = 0
CLASSIFICATION_TYPE = U
NORAD_CAT_ID   = 27386
ELEMENT_SET_NO = 999
REV_AT_EPOCH   = 26222
BSTAR          = .62490387E-4
MEAN_MOTION_DOT = .15E-5
MEAN_MOTION_DDOT = 0

CCSDS_OMM_VERS = 2.0
CREATION_DATE  = 
ORIGINATOR     = 

OBJECT_NAME    = IDEFIX & ARIANE 42P R/B
OBJECT_ID      = 2002-021B
CENTER_NAME    = EARTH
REF_FRAME      = TEME
TIME_SYSTEM    = UTC
MEAN_ELEMENT_THEORY = SGP/SGP4

EPOCH          = 2026-03-30T21:23:25.207008
MEAN_MOTION    = 14.31040497
ECCENTRICITY   = .00126744
INCLINATION    = 98.5895
RA_OF_ASC_NODE = 28.2472
ARG_OF_PERICENTER = 121.9028
MEAN_ANOMALY   = 238.3390

EPHEMERIS_TYPE = 0
CLASSIFICATION_TYPE = U
NORAD_CAT_ID   = 27422
ELEMENT_SET_NO = 999
REV_AT_EPOCH   = 24705
BSTAR          = .14002705E-3
MEAN_MOTION_DOT = .325E-5
MEAN_MOTION_DDOT = 0

