SL-16 R/B               
1 25407U 98045B   26089.55114786 -.00000190  00000+0 -71750-4 0  9991
2 25407  71.0097 137.7055 0008056 336.4069  23.6684 14.16193510430054
ISS (ZARYA)             
1 25544U 98067A   26089.93951280  .00011955  00000+0  22734-3 0  9993
2 25544  51.6341 327.3071 0006212 253.0090 107.0218 15.48666868559629
CZ-4B R/B               
1 25732U 99025C   26089.92230091  .00000071  00000+0  55366-4 0  9991
2 25732  98.6583 133.6968 0035985 284.1911 248.2579 14.18269516391173
OKEAN-O                 
1 25860U 99039A   26089.87605413  .00000894  00000+0  12394-3 0  9992
2 25860  97.9398 149.5476 0000854  96.5365 263.5944 14.80369827437527
SL-16 R/B               
1 25861U 99039B   26089.90354595  .00000739  00000+0  10044-3 0  9997
2 25861  97.9920 148.9638 0014720 183.3491 176.7626 14.81760783440000
DELTA 2 R/B             
1 25876U 99041E   26089.74984101  .00001085  00000+0  21374-3 0  9993
2 25876  51.7608 217.1505 0502630  50.5354 313.8941 14.11886030366002
HELIOS 1B               
1 25977U 99064A   26089.96706329  .00002109  00000+0  23749-3 0  9994
2 25977  98.1672 352.8336 0001708  46.7437 313.3920 14.87780698688429
TERRA                   
1 25994U 99068A   26089.89862656  .00000571  00000+0  12538-3 0  9990
2 25994  97.9548 142.5185 0003608 107.5780  65.0721 14.61037432398174
SL-16 R/B               
1 26070U 00006B   26089.64267163  .00000309  00000+0  18110-3 0  9996
2 26070  71.0027  53.7763 0015588 157.0260 203.1563 14.15828586351527
TITAN 4B R/B            
1 26474U 00047B   26089.96393357  .00005049  00000+0  31446-3 0  9992
2 26474  67.9916 340.6813 0039914  10.4415 349.7553 15.09760287396121
ENVISAT                 
1 27386U 02009A   26089.88032505  .00000150  00000+0  62490-4 0  9993
2 27386  98.3762  42.9777 0001215  81.9458 296.8331 14.39044384262229
IDEFIX & ARIANE 42P R/B 
1 27422U 02021B   26089.89126397  .00000325  00000+0  14003-3 0  9992
2 27422  98.5895  28.2472 0012674 121.9028 238.3390 14.31040497247050
